{
  "type": "FeatureCollection",
  "features": [
    {
      "type": "Feature",
      "properties": {
        "norad_id": 66604,
        "name": "STARLINK-35977",
        "group": "last-30-days",
        "lat": -19.196215584472537,
        "lon": -3.458064949197515,
        "alt_km": 445.5377327536198,
        "timestamp": "2025-12-19T06:59:42.649926+00:00",
        "meta_object_name": "STARLINK-35977",
        "meta_object_id": "2025-270S",
        "meta_epoch": "2025-12-19T00:00:02.000160",
        "meta_mean_motion": 15.40672764,
        "meta_eccentricity": 0.00019577,
        "meta_inclination": 42.9995,
        "meta_ra_of_asc_node": 156.2821,
        "meta_arg_of_pericenter": 280.7893,
        "meta_mean_anomaly": 109.5877,
        "meta_ephemeris_type": 0,
        "meta_classification_type": "U",
        "meta_norad_cat_id": 66604,
        "meta_element_set_no": 999,
        "meta_rev_at_epoch": 540,
        "meta_bstar": 0.0013974681,
        "meta_mean_motion_dot": 0.00058469,
        "meta_mean_motion_ddot": 0,
        "tle_line1": "1 66604U 25270S   25353.00002315  .00058469  00000+0  13975-2 0  9995",
        "tle_line2": "2 66604  42.9995 156.2821 0001957 280.7893 109.5877 15.40672764  5404"
      },
      "geometry": {
        "type": "Point",
        "coordinates": [
          -3.458064949197515,
          -19.196215584472537
        ]
      }
    },
    {
      "type": "Feature",
      "properties": {
        "norad_id": 66605,
        "name": "STARLINK-36052",
        "group": "last-30-days",
        "lat": -41.541285664499874,
        "lon": 82.46441264048549,
        "alt_km": 443.9039107479939,
        "timestamp": "2025-12-19T06:59:42.649939+00:00",
        "meta_object_name": "STARLINK-36052",
        "meta_object_id": "2025-270T",
        "meta_epoch": "2025-12-19T00:00:02.000160",
        "meta_mean_motion": 15.43802755,
        "meta_eccentricity": 0.00018479,
        "meta_inclination": 42.9995,
        "meta_ra_of_asc_node": 156.1054,
        "meta_arg_of_pericenter": 294.557,
        "meta_mean_anomaly": 168.4888,
        "meta_ephemeris_type": 0,
        "meta_classification_type": "U",
        "meta_norad_cat_id": 66605,
        "meta_element_set_no": 999,
        "meta_rev_at_epoch": 540,
        "meta_bstar": -0.094048181,
        "meta_mean_motion_dot": -0.03806129,
        "meta_mean_motion_ddot": 0,
        "tle_line1": "1 66605U 25270T   25353.00002315 -.03806129  00000+0 -94048-1 0  9994",
        "tle_line2": "2 66605  42.9995 156.1054 0001847 294.5570 168.4888 15.43802755  5409"
      },
      "geometry": {
        "type": "Point",
        "coordinates": [
          82.46441264048549,
          -41.541285664499874
        ]
      }
    },
    {
      "type": "Feature",
      "properties": {
        "norad_id": 66606,
        "name": "STARLINK-36063",
        "group": "last-30-days",
        "lat": -26.14609889373101,
        "lon": 122.53891829657732,
        "alt_km": 416.6708496231804,
        "timestamp": "2025-12-19T06:59:42.649949+00:00",
        "meta_object_name": "STARLINK-36063",
        "meta_object_id": "2025-270U",
        "meta_epoch": "2025-12-18T20:20:48.158304",
        "meta_mean_motion": 15.50580299,
        "meta_eccentricity": 0.000159,
        "meta_inclination": 42.9988,
        "meta_ra_of_asc_node": 156.9256,
        "meta_arg_of_pericenter": 261.4972,
        "meta_mean_anomaly": 98.5708,
        "meta_ephemeris_type": 0,
        "meta_classification_type": "U",
        "meta_norad_cat_id": 66606,
        "meta_element_set_no": 999,
        "meta_rev_at_epoch": 529,
        "meta_bstar": 0.001220157,
        "meta_mean_motion_dot": 0.00071903,
        "meta_mean_motion_ddot": 0,
        "tle_line1": "1 66606U 25270U   25352.84777961  .00071903  00000+0  12202-2 0  9994",
        "tle_line2": "2 66606  42.9988 156.9256 0001590 261.4972  98.5708 15.50580299  5293"
      },
      "geometry": {
        "type": "Point",
        "coordinates": [
          122.53891829657732,
          -26.14609889373101
        ]
      }
    },
    {
      "type": "Feature",
      "properties": {
        "norad_id": 66607,
        "name": "STARLINK-35993",
        "group": "last-30-days",
        "lat": -38.527917639605704,
        "lon": 95.6957199304618,
        "alt_km": 439.42696290817,
        "timestamp": "2025-12-19T06:59:42.649962+00:00",
        "meta_object_name": "STARLINK-35993",
        "meta_object_id": "2025-270V",
        "meta_epoch": "2025-12-19T00:00:02.000160",
        "meta_mean_motion": 15.44160316,
        "meta_eccentricity": 0.00017521,
        "meta_inclination": 42.9997,
        "meta_ra_of_asc_node": 156.084,
        "meta_arg_of_pericenter": 286.0338,
        "meta_mean_anomaly": 186.5918,
        "meta_ephemeris_type": 0,
        "meta_classification_type": "U",
        "meta_norad_cat_id": 66607,
        "meta_element_set_no": 999,
        "meta_rev_at_epoch": 530,
        "meta_bstar": -0.04725951,
        "meta_mean_motion_dot": -0.019796,
        "meta_mean_motion_ddot": 0,
        "tle_line1": "1 66607U 25270V   25353.00002315 -.01979600  00000+0 -47260-1 0  9993",
        "tle_line2": "2 66607  42.9997 156.0840 0001752 286.0338 186.5918 15.44160316  5303"
      },
      "geometry": {
        "type": "Point",
        "coordinates": [
          95.6957199304618,
          -38.527917639605704
        ]
      }
    },
    {
      "type": "Feature",
      "properties": {
        "norad_id": 66608,
        "name": "STARLINK-36036",
        "group": "last-30-days",
        "lat": -25.019810401750274,
        "lon": 124.26661880796978,
        "alt_km": 416.4983686056312,
        "timestamp": "2025-12-19T06:59:42.649972+00:00",
        "meta_object_name": "STARLINK-36036",
        "meta_object_id": "2025-270W",
        "meta_epoch": "2025-12-18T20:20:18.373632",
        "meta_mean_motion": 15.50586069,
        "meta_eccentricity": 0.00016708,
        "meta_inclination": 42.9988,
        "meta_ra_of_asc_node": 156.9232,
        "meta_arg_of_pericenter": 267.7224,
        "meta_mean_anomaly": 92.3445,
        "meta_ephemeris_type": 0,
        "meta_classification_type": "U",
        "meta_norad_cat_id": 66608,
        "meta_element_set_no": 999,
        "meta_rev_at_epoch": 513,
        "meta_bstar": 0.0010510214,
        "meta_mean_motion_dot": 0.00061821,
        "meta_mean_motion_ddot": 0,
        "tle_line1": "1 66608U 25270W   25352.84743488  .00061821  00000+0  10510-2 0  9991",
        "tle_line2": "2 66608  42.9988 156.9232 0001670 267.7224  92.3445 15.50586069  5131"
      },
      "geometry": {
        "type": "Point",
        "coordinates": [
          124.26661880796978,
          -25.019810401750274
        ]
      }
    },
    {
      "type": "Feature",
      "properties": {
        "norad_id": 66609,
        "name": "STARLINK-36034",
        "group": "last-30-days",
        "lat": -23.868982189509357,
        "lon": 125.96953499251495,
        "alt_km": 416.78129864307175,
        "timestamp": "2025-12-19T06:59:42.649984+00:00",
        "meta_object_name": "STARLINK-36034",
        "meta_object_id": "2025-270X",
        "meta_epoch": "2025-12-18T18:47:03.089760",
        "meta_mean_motion": 15.50589541,
        "meta_eccentricity": 0.00016841,
        "meta_inclination": 42.9988,
        "meta_ra_of_asc_node": 157.2976,
        "meta_arg_of_pericenter": 249.3015,
        "meta_mean_anomaly": 110.7665,
        "meta_ephemeris_type": 0,
        "meta_classification_type": "U",
        "meta_norad_cat_id": 66609,
        "meta_element_set_no": 999,
        "meta_rev_at_epoch": 512,
        "meta_bstar": 0.00066974617,
        "meta_mean_motion_dot": 0.00039161,
        "meta_mean_motion_ddot": 0,
        "tle_line1": "1 66609U 25270X   25352.78267465  .00039161  00000+0  66975-3 0  9990",
        "tle_line2": "2 66609  42.9988 157.2976 0001684 249.3015 110.7665 15.50589541  5126"
      },
      "geometry": {
        "type": "Point",
        "coordinates": [
          125.96953499251495,
          -23.868982189509357
        ]
      }
    },
    {
      "type": "Feature",
      "properties": {
        "norad_id": 66610,
        "name": "STARLINK-35680",
        "group": "last-30-days",
        "lat": -29.81067598881039,
        "lon": 116.40687073794044,
        "alt_km": 432.72591952180755,
        "timestamp": "2025-12-19T06:59:42.649995+00:00",
        "meta_object_name": "STARLINK-35680",
        "meta_object_id": "2025-270Y",
        "meta_epoch": "2025-12-19T00:00:02.000160",
        "meta_mean_motion": 15.46342752,
        "meta_eccentricity": 0.00015865,
        "meta_inclination": 42.9997,
        "meta_ra_of_asc_node": 156.0413,
        "meta_arg_of_pericenter": 288.9279,
        "meta_mean_anomaly": 200.6202,
        "meta_ephemeris_type": 0,
        "meta_classification_type": "U",
        "meta_norad_cat_id": 66610,
        "meta_element_set_no": 999,
        "meta_rev_at_epoch": 551,
        "meta_bstar": -0.043871724,
        "meta_mean_motion_dot": -0.01981426,
        "meta_mean_motion_ddot": 0,
        "tle_line1": "1 66610U 25270Y   25353.00002315 -.01981426  00000+0 -43872-1 0  9991",
        "tle_line2": "2 66610  42.9997 156.0413 0001586 288.9279 200.6202 15.46342752  5518"
      },
      "geometry": {
        "type": "Point",
        "coordinates": [
          116.40687073794044,
          -29.81067598881039
        ]
      }
    }
  ]
}